{
    "links": {
        "self": "http://www.neowsapp.com/rest/v1/neo/3712982?api_key=iIulBulltgU6a56xZRHN4H3l9WmuAYTsLGpBGhQ2"
    },
    "id": "3712982",
    "neo_reference_id": "3712982",
    "name": "(2015 ER)",
    "designation": "2015 ER",
    "nasa_jpl_url": "http://ssd.jpl.nasa.gov/sbdb.cgi?sstr=3712982",
    "absolute_magnitude_h": 21.3,
    "estimated_diameter": {
        "kilometers": {
            "estimated_diameter_min": 0.1460679643,
            "estimated_diameter_max": 0.3266178974
        },
        "meters": {
            "estimated_diameter_min": 146.0679642714,
            "estimated_diameter_max": 326.6178974458
        },
        "miles": {
            "estimated_diameter_min": 0.090762397,
            "estimated_diameter_max": 0.2029508896
        },
        "feet": {
            "estimated_diameter_min": 479.2256199,
            "estimated_diameter_max": 1071.581062656
        }
    },
    "is_potentially_hazardous_asteroid": false,
    "close_approach_data": [
        {
            "close_approach_date": "1907-01-31",
            "close_approach_date_full": "1907-Jan-31 09:02",
            "epoch_date_close_approach": -1985525880000,
            "relative_velocity": {
                "kilometers_per_second": "7.5166972417",
                "kilometers_per_hour": "27060.1100699921",
                "miles_per_hour": "16814.1000598793"
            },
            "miss_distance": {
                "astronomical": "1.2663722117",
                "lunar": "492.6187903513",
                "kilometers": "189446585.497509079",
                "miles": "117716649.6345761302"
            },
            "orbiting_body": "Juptr"
        },
        {
            "close_approach_date": "2013-11-10",
            "close_approach_date_full": "2013-Nov-10 00:13",
            "epoch_date_close_approach": 1384042380000,
            "relative_velocity": {
                "kilometers_per_second": "8.1271410738",
                "kilometers_per_hour": "29257.7078656657",
                "miles_per_hour": "18179.6018679743"
            },
            "miss_distance": {
                "astronomical": "1.3283232774",
                "lunar": "516.7177549086",
                "kilometers": "198714332.970459138",
                "miles": "123475360.8792785844"
            },
            "orbiting_body": "Juptr"
        },
        {
            "close_approach_date": "2015-03-23",
            "close_approach_date_full": "2015-Mar-23 00:17",
            "epoch_date_close_approach": 1427069820000,
            "relative_velocity": {
                "kilometers_per_second": "23.1337705661",
                "kilometers_per_hour": "83281.5740379377",
                "miles_per_hour": "51747.9313792952"
            },
            "miss_distance": {
                "astronomical": "0.1713034601",
                "lunar": "66.6370459789",
                "kilometers": "25626632.754589987",
                "miles": "15923651.2041843406"
            },
            "orbiting_body": "Earth"
        },
        {
            "close_approach_date": "2180-01-17",
            "close_approach_date_full": "2180-Jan-17 05:36",
            "epoch_date_close_approach": 6628368960000,
            "relative_velocity": {
                "kilometers_per_second": "7.1459087031",
                "kilometers_per_hour": "25725.2713311693",
                "miles_per_hour": "15984.6831779702"
            },
            "miss_distance": {
                "astronomical": "1.2723736291",
                "lunar": "494.9533417199",
                "kilometers": "190344384.757530017",
                "miles": "118274516.2261355546"
            },
            "orbiting_body": "Juptr"
        },
        {
            "close_approach_date": "2192-10-08",
            "close_approach_date_full": "2192-Oct-08 09:49",
            "epoch_date_close_approach": 7029971340000,
            "relative_velocity": {
                "kilometers_per_second": "23.5103235373",
                "kilometers_per_hour": "84637.1647343228",
                "miles_per_hour": "52590.242720613"
            },
            "miss_distance": {
                "astronomical": "0.2510159043",
                "lunar": "97.6451867727",
                "kilometers": "37551444.619403841",
                "miles": "23333385.7030253658"
            },
            "orbiting_body": "Earth"
        }
    ],
    "orbital_data": {
        "orbit_id": "14",
        "orbit_determination_date": "2017-04-06 08:35:13",
        "first_observation_date": "2015-03-10",
        "last_observation_date": "2015-03-28",
        "data_arc_in_days": 18,
        "observations_used": 88,
        "orbit_uncertainty": "8",
        "minimum_orbit_intersection": ".0675902",
        "jupiter_tisserand_invariant": "2.997",
        "epoch_osculation": "2457099.5",
        "eccentricity": ".8161563520549772",
        "semi_major_axis": "2.322903667875289",
        "inclination": "11.55675515011652",
        "ascending_node_longitude": "335.0717411536957",
        "orbital_period": "1293.139049449326",
        "perihelion_distance": ".427051084127067",
        "perihelion_argument": "305.7007690653072",
        "aphelion_distance": "4.218756251623511",
        "perihelion_time": "2457150.290044391012",
        "mean_anomaly": "345.8604409258613",
        "mean_motion": ".2783923354207757",
        "equinox": "J2000",
        "orbit_class": {
            "orbit_class_type": "APO",
            "orbit_class_description": "Near-Earth asteroid orbits which cross the Earth’s orbit similar to that of 1862 Apollo",
            "orbit_class_range": "a (semi-major axis) > 1.0 AU; q (perihelion) < 1.017 AU"
        }
    },
    "is_sentry_object": false
}